{"type": "FeatureCollection", "features": [{"type": "Feature", "properties": {"norad_id": 24946, "name": "IRIDIUM 33", "group": "iridium-33-debris", "lat": 59.510220124553605, "lon": 75.15191332684854, "alt_km": 773.3556639524886, "timestamp": "2025-12-10T21:43:22.475497+00:00", "meta": {"OBJECT_NAME": "IRIDIUM 33", "OBJECT_ID": "1997-051C", "EPOCH": "2025-12-10T11:24:15.672096", "MEAN_MOTION": 14.35034929, "ECCENTRICITY": 0.00067734, "INCLINATION": 86.387, "RA_OF_ASC_NODE": 69.1722, "ARG_OF_PERICENTER": 208.6208, "MEAN_ANOMALY": 151.4617, "EPHEMERIS_TYPE": 0, "CLASSIFICATION_TYPE": "U", "NORAD_CAT_ID": 24946, "ELEMENT_SET_NO": 999, "REV_AT_EPOCH": 47802, "BSTAR": 0.00019569961, "MEAN_MOTION_DOT": 5.77e-06, "MEAN_MOTION_DDOT": 0}, "tle": {"line1": "1 24946U 97051C   25344.47518139  .00000577  00000+0  19570-3 0  9996", "line2": "2 24946  86.3870  69.1722 0006773 208.6208 151.4617 14.35034929478021"}}, "geometry": {"type": "Point", "coordinates": [75.15191332684854, 59.510220124553605]}}, {"type": "Feature", "properties": {"norad_id": 33773, "name": "IRIDIUM 33 DEB", "group": "iridium-33-debris", "lat": -37.393535120308506, "lon": 58.609705845586795, "alt_km": 762.8872825436183, "timestamp": "2025-12-10T21:43:22.475538+00:00", "meta": {"OBJECT_NAME": "IRIDIUM 33 DEB", "OBJECT_ID": "1997-051L", "EPOCH": "2025-12-10T11:54:46.043136", "MEAN_MOTION": 14.43249294, "ECCENTRICITY": 0.00122729, "INCLINATION": 86.4013, "RA_OF_ASC_NODE": 61.5401, "ARG_OF_PERICENTER": 153.0085, "MEAN_ANOMALY": 207.1757, "EPHEMERIS_TYPE": 0, "CLASSIFICATION_TYPE": "U", "NORAD_CAT_ID": 33773, "ELEMENT_SET_NO": 999, "REV_AT_EPOCH": 88315, "BSTAR": 0.00048914009, "MEAN_MOTION_DOT": 1.666e-05, "MEAN_MOTION_DDOT": 0}, "tle": {"line1": "1 33773U 97051L   25344.49636624  .00001666  00000+0  48914-3 0  9990", "line2": "2 33773  86.4013  61.5401 0012272 153.0085 207.1757 14.43249294883156"}}, "geometry": {"type": "Point", "coordinates": [58.609705845586795, -37.393535120308506]}}, {"type": "Feature", "properties": {"norad_id": 33775, "name": "IRIDIUM 33 DEB", "group": "iridium-33-debris", "lat": 57.50061887320578, "lon": 56.06549872394882, "alt_km": 750.3677938416149, "timestamp": "2025-12-10T21:43:22.475555+00:00", "meta": {"OBJECT_NAME": "IRIDIUM 33 DEB", "OBJECT_ID": "1997-051N", "EPOCH": "2025-12-10T11:30:55.922688", "MEAN_MOTION": 14.41461021, "ECCENTRICITY": 0.00140482, "INCLINATION": 86.3639, "RA_OF_ASC_NODE": 50.5184, "ARG_OF_PERICENTER": 161.5462, "MEAN_ANOMALY": 210.7248, "EPHEMERIS_TYPE": 0, "CLASSIFICATION_TYPE": "U", "NORAD_CAT_ID": 33775, "ELEMENT_SET_NO": 999, "REV_AT_EPOCH": 88108, "BSTAR": 0.00051864419, "MEAN_MOTION_DOT": 1.703e-05, "MEAN_MOTION_DDOT": 0}, "tle": {"line1": "1 33775U 97051N   25344.47981392  .00001703  00000+0  51864-3 0  9995", "line2": "2 33775  86.3639  50.5184 0014048 161.5462 210.7248 14.41461021881080"}}, "geometry": {"type": "Point", "coordinates": [56.06549872394882, 57.50061887320578]}}, {"type": "Feature", "properties": {"norad_id": 33776, "name": "IRIDIUM 33 DEB", "group": "iridium-33-debris", "lat": -50.87838882738643, "lon": 77.11147700625126, "alt_km": 775.2237278413077, "timestamp": "2025-12-10T21:43:22.475568+00:00", "meta": {"OBJECT_NAME": "IRIDIUM 33 DEB", "OBJECT_ID": "1997-051P", "EPOCH": "2025-12-10T13:39:27.777600", "MEAN_MOTION": 14.38229346, "ECCENTRICITY": 0.00140925, "INCLINATION": 86.4038, "RA_OF_ASC_NODE": 81.6874, "ARG_OF_PERICENTER": 197.5337, "MEAN_ANOMALY": 172.5443, "EPHEMERIS_TYPE": 0, "CLASSIFICATION_TYPE": "U", "NORAD_CAT_ID": 33776, "ELEMENT_SET_NO": 999, "REV_AT_EPOCH": 88051, "BSTAR": 0.0005085042, "MEAN_MOTION_DOT": 1.565e-05, "MEAN_MOTION_DDOT": 0}, "tle": {"line1": "1 33776U 97051P   25344.56907150  .00001565  00000+0  50850-3 0  9996", "line2": "2 33776  86.4038  81.6874 0014092 197.5337 172.5443 14.38229346880512"}}, "geometry": {"type": "Point", "coordinates": [77.11147700625126, -50.87838882738643]}}, {"type": "Feature", "properties": {"norad_id": 33777, "name": "IRIDIUM 33 DEB", "group": "iridium-33-debris", "lat": -17.98329145751005, "lon": 34.82334919882696, "alt_km": 712.1748615058204, "timestamp": "2025-12-10T21:43:22.475581+00:00", "meta": {"OBJECT_NAME": "IRIDIUM 33 DEB", "OBJECT_ID": "1997-051Q", "EPOCH": "2025-12-10T13:33:22.021344", "MEAN_MOTION": 14.55588213, "ECCENTRICITY": 0.00050754, "INCLINATION": 86.3784, "RA_OF_ASC_NODE": 36.1493, "ARG_OF_PERICENTER": 259.0023, "MEAN_ANOMALY": 101.0614, "EPHEMERIS_TYPE": 0, "CLASSIFICATION_TYPE": "U", "NORAD_CAT_ID": 33777, "ELEMENT_SET_NO": 999, "REV_AT_EPOCH": 88502, "BSTAR": 0.0013602891, "MEAN_MOTION_DOT": 5.952e-05, "MEAN_MOTION_DDOT": 0}, "tle": {"line1": "1 33777U 97051Q   25344.56483821  .00005952  00000+0  13603-2 0  9999", "line2": "2 33777  86.3784  36.1493 0005075 259.0023 101.0614 14.55588213885027"}}, "geometry": {"type": "Point", "coordinates": [34.82334919882696, -17.98329145751005]}}, {"type": "Feature", "properties": {"norad_id": 33850, "name": "IRIDIUM 33 DEB", "group": "iridium-33-debris", "lat": 34.05445086533789, "lon": 33.44696879071002, "alt_km": 755.0669938904039, "timestamp": "2025-12-10T21:43:22.475594+00:00", "meta": {"OBJECT_NAME": "IRIDIUM 33 DEB", "OBJECT_ID": "1997-051T", "EPOCH": "2025-12-10T03:29:36.109248", "MEAN_MOTION": 14.42137967, "ECCENTRICITY": 0.00119531, "INCLINATION": 86.3419, "RA_OF_ASC_NODE": 31.2952, "ARG_OF_PERICENTER": 168.989, "MEAN_ANOMALY": 244.4174, "EPHEMERIS_TYPE": 0, "CLASSIFICATION_TYPE": "U", "NORAD_CAT_ID": 33850, "ELEMENT_SET_NO": 999, "REV_AT_EPOCH": 88115, "BSTAR": 0.00047039968, "MEAN_MOTION_DOT": 1.567e-05, "MEAN_MOTION_DDOT": 0}, "tle": {"line1": "1 33850U 97051T   25344.14555682  .00001567  00000+0  47040-3 0  9991", "line2": "2 33850  86.3419  31.2952 0011953 168.9890 244.4174 14.42137967881157"}}, "geometry": {"type": "Point", "coordinates": [33.44696879071002, 34.05445086533789]}}, {"type": "Feature", "properties": {"norad_id": 33853, "name": "IRIDIUM 33 DEB", "group": "iridium-33-debris", "lat": -16.201255449737136, "lon": -10.548926479029257, "alt_km": 931.1336160890687, "timestamp": "2025-12-10T21:43:22.475607+00:00", "meta": {"OBJECT_NAME": "IRIDIUM 33 DEB", "OBJECT_ID": "1997-051W", "EPOCH": "2025-12-09T12:13:24.016800", "MEAN_MOTION": 13.99031995, "ECCENTRICITY": 0.02069783, "INCLINATION": 85.9998, "RA_OF_ASC_NODE": 351.2277, "ARG_OF_PERICENTER": 245.8173, "MEAN_ANOMALY": 269.932, "EPHEMERIS_TYPE": 0, "CLASSIFICATION_TYPE": "U", "NORAD_CAT_ID": 33853, "ELEMENT_SET_NO": 999, "REV_AT_EPOCH": 85300, "BSTAR": 0.0029960339, "MEAN_MOTION_DOT": 5.22e-05, "MEAN_MOTION_DDOT": 0}, "tle": {"line1": "1 33853U 97051W   25343.50930575  .00005220  00000+0  29960-2 0  9991", "line2": "2 33853  85.9998 351.2277 0206978 245.8173 269.9320 13.99031995853007"}}, "geometry": {"type": "Point", "coordinates": [-10.548926479029257, -16.201255449737136]}}, {"type": "Feature", "properties": {"norad_id": 33860, "name": "IRIDIUM 33 DEB", "group": "iridium-33-debris", "lat": 17.86079182236711, "lon": -153.11767912529623, "alt_km": 675.1746587222697, "timestamp": "2025-12-10T21:43:22.475619+00:00", "meta": {"OBJECT_NAME": "IRIDIUM 33 DEB", "OBJECT_ID": "1997-051AD", "EPOCH": "2025-12-10T09:47:56.154048", "MEAN_MOTION": 14.67318543, "ECCENTRICITY": 0.00077556, "INCLINATION": 86.3835, "RA_OF_ASC_NODE": 28.2699, "ARG_OF_PERICENTER": 6.0738, "MEAN_ANOMALY": 53.1424, "EPHEMERIS_TYPE": 0, "CLASSIFICATION_TYPE": "U", "NORAD_CAT_ID": 33860, "ELEMENT_SET_NO": 999, "REV_AT_EPOCH": 88688, "BSTAR": 0.0017973953, "MEAN_MOTION_DOT": 0.00010173, "MEAN_MOTION_DDOT": 0}, "tle": {"line1": "1 33860U 97051AD  25344.40828882  .00010173  00000+0  17974-2 0  9991", "line2": "2 33860  86.3835  28.2699 0007755   6.0738  53.1424 14.67318543886888"}}, "geometry": {"type": "Point", "coordinates": [-153.11767912529623, 17.86079182236711]}}, {"type": "Feature", "properties": {"norad_id": 33862, "name": "IRIDIUM 33 DEB", "group": "iridium-33-debris", "lat": -4.063658157926009, "lon": -141.40537723722508, "alt_km": 678.4233758539012, "timestamp": "2025-12-10T21:43:22.475630+00:00", "meta": {"OBJECT_NAME": "IRIDIUM 33 DEB", "OBJECT_ID": "1997-051AF", "EPOCH": "2025-12-10T15:04:48.341856", "MEAN_MOTION": 14.69416513, "ECCENTRICITY": 0.00536404, "INCLINATION": 86.4089, "RA_OF_ASC_NODE": 38.461, "ARG_OF_PERICENTER": 76.255, "MEAN_ANOMALY": 83.9048, "EPHEMERIS_TYPE": 0, "CLASSIFICATION_TYPE": "U", "NORAD_CAT_ID": 33862, "ELEMENT_SET_NO": 999, "REV_AT_EPOCH": 88792, "BSTAR": 0.0020287642, "MEAN_MOTION_DOT": 0.00012304, "MEAN_MOTION_DDOT": 0}, "tle": {"line1": "1 33862U 97051AF  25344.62833729  .00012304  00000+0  20288-2 0  9993", "line2": "2 33862  86.4089  38.4610 0053640  76.2550  83.9048 14.69416513887920"}}, "geometry": {"type": "Point", "coordinates": [-141.40537723722508, -4.063658157926009]}}, {"type": "Feature", "properties": {"norad_id": 33866, "name": "IRIDIUM 33 DEB", "group": "iridium-33-debris", "lat": -0.42486747111142203, "lon": -86.16083703626906, "alt_km": 730.6188487437857, "timestamp": "2025-12-10T21:43:22.475642+00:00", "meta": {"OBJECT_NAME": "IRIDIUM 33 DEB", "OBJECT_ID": "1997-051AK", "EPOCH": "2025-12-10T14:12:58.238208", "MEAN_MOTION": 14.25263648, "ECCENTRICITY": 0.0114315, "INCLINATION": 86.2998, "RA_OF_ASC_NODE": 93.944, "ARG_OF_PERICENTER": 168.2247, "MEAN_ANOMALY": 207.9302, "EPHEMERIS_TYPE": 0, "CLASSIFICATION_TYPE": "U", "NORAD_CAT_ID": 33866, "ELEMENT_SET_NO": 999, "REV_AT_EPOCH": 86780, "BSTAR": 0.001135173, "MEAN_MOTION_DOT": 2.877e-05, "MEAN_MOTION_DDOT": 0}, "tle": {"line1": "1 33866U 97051AK  25344.59234072  .00002877  00000+0  11352-2 0  9995", "line2": "2 33866  86.2998  93.9440 0114315 168.2247 207.9302 14.25263648867807"}}, "geometry": {"type": "Point", "coordinates": [-86.16083703626906, -0.42486747111142203]}}]}